CCSDS_OMM_VERS = 2.0
CREATION_DATE  = 
ORIGINATOR     = 

OBJECT_NAME    = UNKNOWN
OBJECT_ID      = 
CENTER_NAME    = EARTH
REF_FRAME      = TEME
TIME_SYSTEM    = UTC
MEAN_ELEMENT_THEORY = SGP/SGP4

EPOCH          = 2026-02-28T04:29:55.958208
MEAN_MOTION    = 13.76887729
ECCENTRICITY   = .0021824
INCLINATION    = 100.0566
RA_OF_ASC_NODE = 51.7957
ARG_OF_PERICENTER = 70.3264
MEAN_ANOMALY   = 290.0236

EPHEMERIS_TYPE = 0
CLASSIFICATION_TYPE = U
NORAD_CAT_ID   = 81893
ELEMENT_SET_NO = 999
REV_AT_EPOCH   = 61473
BSTAR          = .10973E-2
MEAN_MOTION_DOT = .1034E-4
MEAN_MOTION_DDOT = 0

CCSDS_OMM_VERS = 2.0
CREATION_DATE  = 
ORIGINATOR     = 

OBJECT_NAME    = UNKNOWN
OBJECT_ID      = 
CENTER_NAME    = EARTH
REF_FRAME      = TEME
TIME_SYSTEM    = UTC
MEAN_ELEMENT_THEORY = SGP/SGP4

EPOCH          = 2026-02-26T06:28:40.560096
MEAN_MOTION    = 13.20433881
ECCENTRICITY   = .0171187
INCLINATION    = 102.4116
RA_OF_ASC_NODE = 177.6863
ARG_OF_PERICENTER = 55.8113
MEAN_ANOMALY   = 305.9090

EPHEMERIS_TYPE = 0
CLASSIFICATION_TYPE = U
NORAD_CAT_ID   = 81899
ELEMENT_SET_NO = 999
REV_AT_EPOCH   = 58895
BSTAR          = .34379E-2
MEAN_MOTION_DOT = .1445E-4
MEAN_MOTION_DDOT = 0

CCSDS_OMM_VERS = 2.0
CREATION_DATE  = 
ORIGINATOR     = 

OBJECT_NAME    = UNKNOWN
OBJECT_ID      = 
CENTER_NAME    = EARTH
REF_FRAME      = TEME
TIME_SYSTEM    = UTC
MEAN_ELEMENT_THEORY = SGP/SGP4

EPOCH          = 2026-02-12T00:04:10.825248
MEAN_MOTION    = 13.15370292
ECCENTRICITY   = .0843521
INCLINATION    = 65.7084
RA_OF_ASC_NODE = 274.0577
ARG_OF_PERICENTER = 88.0128
MEAN_ANOMALY   = 281.7178

EPHEMERIS_TYPE = 0
CLASSIFICATION_TYPE = U
NORAD_CAT_ID   = 81921
ELEMENT_SET_NO = 999
REV_AT_EPOCH   = 3384
BSTAR          = .89945E-3
MEAN_MOTION_DOT = .2156E-4
MEAN_MOTION_DDOT = 0

CCSDS_OMM_VERS = 2.0
CREATION_DATE  = 
ORIGINATOR     = 

OBJECT_NAME    = UNKNOWN
OBJECT_ID      = 
CENTER_NAME    = EARTH
REF_FRAME      = TEME
TIME_SYSTEM    = UTC
MEAN_ELEMENT_THEORY = SGP/SGP4

EPOCH          = 2026-02-27T20:20:15.658080
MEAN_MOTION    = 12.42640677
ECCENTRICITY   = .0677665
INCLINATION    = 66.4234
RA_OF_ASC_NODE = 4.3155
ARG_OF_PERICENTER = 314.2110
MEAN_ANOMALY   = 69.7902

EPHEMERIS_TYPE = 0
CLASSIFICATION_TYPE = U
NORAD_CAT_ID   = 81946
ELEMENT_SET_NO = 999
REV_AT_EPOCH   = 55746
BSTAR          = .53335E-3
MEAN_MOTION_DOT = .111E-5
MEAN_MOTION_DDOT = 0

CCSDS_OMM_VERS = 2.0
CREATION_DATE  = 
ORIGINATOR     = 

OBJECT_NAME    = UNKNOWN
OBJECT_ID      = 
CENTER_NAME    = EARTH
REF_FRAME      = TEME
TIME_SYSTEM    = UTC
MEAN_ELEMENT_THEORY = SGP/SGP4

EPOCH          = 2026-02-15T06:28:00.562944
MEAN_MOTION    = 14.53455041
ECCENTRICITY   = .0369403
INCLINATION    = 66.0766
RA_OF_ASC_NODE = 348.0426
ARG_OF_PERICENTER = 102.1488
MEAN_ANOMALY   = 262.1248

EPHEMERIS_TYPE = 0
CLASSIFICATION_TYPE = U
NORAD_CAT_ID   = 81947
ELEMENT_SET_NO = 999
REV_AT_EPOCH   = 64039
BSTAR          = .53381E-3
MEAN_MOTION_DOT = .5449E-4
MEAN_MOTION_DDOT = 0

CCSDS_OMM_VERS = 2.0
CREATION_DATE  = 
ORIGINATOR     = 

OBJECT_NAME    = UNKNOWN
OBJECT_ID      = 
CENTER_NAME    = EARTH
REF_FRAME      = TEME
TIME_SYSTEM    = UTC
MEAN_ELEMENT_THEORY = SGP/SGP4

EPOCH          = 2026-02-25T11:28:29.379648
MEAN_MOTION    = 13.95849466
ECCENTRICITY   = .0032615
INCLINATION    = 66.5834
RA_OF_ASC_NODE = 73.1648
ARG_OF_PERICENTER = 26.0582
MEAN_ANOMALY   = 334.2130

EPHEMERIS_TYPE = 0
CLASSIFICATION_TYPE = U
NORAD_CAT_ID   = 81964
ELEMENT_SET_NO = 999
REV_AT_EPOCH   = 62447
BSTAR          = .20472E-3
MEAN_MOTION_DOT = .202E-5
MEAN_MOTION_DDOT = 0

CCSDS_OMM_VERS = 2.0
CREATION_DATE  = 
ORIGINATOR     = 

OBJECT_NAME    = UNKNOWN
OBJECT_ID      = 
CENTER_NAME    = EARTH
REF_FRAME      = TEME
TIME_SYSTEM    = UTC
MEAN_ELEMENT_THEORY = SGP/SGP4

EPOCH          = 2026-02-27T14:03:12.006432
MEAN_MOTION    = 15.13042256
ECCENTRICITY   = .0002455
INCLINATION    = 86.6855
RA_OF_ASC_NODE = 120.0486
ARG_OF_PERICENTER = 219.6740
MEAN_ANOMALY   = 140.4320

EPHEMERIS_TYPE = 0
CLASSIFICATION_TYPE = U
NORAD_CAT_ID   = 81969
ELEMENT_SET_NO = 999
REV_AT_EPOCH   = 45178
BSTAR          = .57789E-3
MEAN_MOTION_DOT = .10243E-3
MEAN_MOTION_DDOT = 0

CCSDS_OMM_VERS = 2.0
CREATION_DATE  = 
ORIGINATOR     = 

OBJECT_NAME    = UNKNOWN
OBJECT_ID      = 
CENTER_NAME    = EARTH
REF_FRAME      = TEME
TIME_SYSTEM    = UTC
MEAN_ELEMENT_THEORY = SGP/SGP4

EPOCH          = 2026-02-20T01:52:16.584672
MEAN_MOTION    = 14.04877272
ECCENTRICITY   = .0517247
INCLINATION    = 65.7468
RA_OF_ASC_NODE = 302.4623
ARG_OF_PERICENTER = 262.9812
MEAN_ANOMALY   = 91.2196

EPHEMERIS_TYPE = 0
CLASSIFICATION_TYPE = U
NORAD_CAT_ID   = 81995
ELEMENT_SET_NO = 999
REV_AT_EPOCH   = 61396
BSTAR          = .69737E-3
MEAN_MOTION_DOT = .3706E-4
MEAN_MOTION_DDOT = 0

CCSDS_OMM_VERS = 2.0
CREATION_DATE  = 
ORIGINATOR     = 

OBJECT_NAME    = UNKNOWN
OBJECT_ID      = 
CENTER_NAME    = EARTH
REF_FRAME      = TEME
TIME_SYSTEM    = UTC
MEAN_ELEMENT_THEORY = SGP/SGP4

EPOCH          = 2026-02-26T20:12:38.015424
MEAN_MOTION    = 14.32954722
ECCENTRICITY   = .0230213
INCLINATION    = 97.9353
RA_OF_ASC_NODE = 205.2109
ARG_OF_PERICENTER = 214.2655
MEAN_ANOMALY   = 144.3497

EPHEMERIS_TYPE = 0
CLASSIFICATION_TYPE = U
NORAD_CAT_ID   = 82043
ELEMENT_SET_NO = 999
REV_AT_EPOCH   = 58474
BSTAR          = .11566E-2
MEAN_MOTION_DOT = .4204E-4
MEAN_MOTION_DDOT = 0

CCSDS_OMM_VERS = 2.0
CREATION_DATE  = 
ORIGINATOR     = 

OBJECT_NAME    = UNKNOWN
OBJECT_ID      = 
CENTER_NAME    = EARTH
REF_FRAME      = TEME
TIME_SYSTEM    = UTC
MEAN_ELEMENT_THEORY = SGP/SGP4

EPOCH          = 2026-02-15T11:26:49.047648
MEAN_MOTION    = 14.36892613
ECCENTRICITY   = .0090792
INCLINATION    = 98.7424
RA_OF_ASC_NODE = 137.9574
ARG_OF_PERICENTER = 69.8098
MEAN_ANOMALY   = 291.2824

EPHEMERIS_TYPE = 0
CLASSIFICATION_TYPE = U
NORAD_CAT_ID   = 82051
ELEMENT_SET_NO = 999
REV_AT_EPOCH   = 58170
BSTAR          = .20421E-2
MEAN_MOTION_DOT = .6292E-4
MEAN_MOTION_DDOT = 0

CCSDS_OMM_VERS = 2.0
CREATION_DATE  = 
ORIGINATOR     = 

OBJECT_NAME    = UNKNOWN
OBJECT_ID      = 
CENTER_NAME    = EARTH
REF_FRAME      = TEME
TIME_SYSTEM    = UTC
MEAN_ELEMENT_THEORY = SGP/SGP4

EPOCH          = 2026-02-27T23:54:53.750016
MEAN_MOTION    = 14.39427779
ECCENTRICITY   = .0206578
INCLINATION    = 97.7415
RA_OF_ASC_NODE = 132.7587
ARG_OF_PERICENTER = 52.1680
MEAN_ANOMALY   = 309.8009

EPHEMERIS_TYPE = 0
CLASSIFICATION_TYPE = U
NORAD_CAT_ID   = 82073
ELEMENT_SET_NO = 999
REV_AT_EPOCH   = 58623
BSTAR          = .56477E-3
MEAN_MOTION_DOT = .2216E-4
MEAN_MOTION_DDOT = 0

CCSDS_OMM_VERS = 2.0
CREATION_DATE  = 
ORIGINATOR     = 

OBJECT_NAME    = UNKNOWN
OBJECT_ID      = 
CENTER_NAME    = EARTH
REF_FRAME      = TEME
TIME_SYSTEM    = UTC
MEAN_ELEMENT_THEORY = SGP/SGP4

EPOCH          = 2026-02-24T15:26:22.335648
MEAN_MOTION    = 14.15835113
ECCENTRICITY   = .0084194
INCLINATION    = 99.0142
RA_OF_ASC_NODE = 129.4014
ARG_OF_PERICENTER = 192.5105
MEAN_ANOMALY   = 167.3979

EPHEMERIS_TYPE = 0
CLASSIFICATION_TYPE = U
NORAD_CAT_ID   = 82139
ELEMENT_SET_NO = 999
REV_AT_EPOCH   = 49057
BSTAR          = .11467E-2
MEAN_MOTION_DOT = .2288E-4
MEAN_MOTION_DDOT = 0

